start=new Date('2022-07-10T00:00:00.000Z').valueOf();
sats=[{"RCS_SIZE":"LARGE","MEAN_MOTION_DDOT":"0.0000000000000","TLE_LINE1":"1 46150U 20057AK  22190.44009991 -.00000098  00000-0  12334-4 0  9995","MEAN_ANOMALY":"302.0728","FILE":"3510582","MEAN_MOTION":"15.06399570","COUNTRY_CODE":"US","NORAD_CAT_ID":"46150","ELEMENT_SET_NO":"999","SITE":"AFETR","OBJECT_ID":"2020-057AK","TIME_SYSTEM":"UTC","OBJECT_TYPE":"PAYLOAD","OBJECT_NAME":"STARLINK-1629","MEAN_ELEMENT_THEORY":"SGP4","ECCENTRICITY":"0.00015130","EPOCH":"2022-07-09T10:33:44.632224","TLE_LINE2":"2 46150  53.0540 208.7419 0001513  58.0408 302.0728 15.06399570104216","INCLINATION":"53.0540","EPHEMERIS_TYPE":"0","PERIOD":"95.592","ARG_OF_PERICENTER":"58.0408","GP_ID":"207729581","PERIAPSIS":"546.167","CENTER_NAME":"EARTH","REV_AT_EPOCH":"10421","APOAPSIS":"548.263","REF_FRAME":"TEME","RA_OF_ASC_NODE":"208.7419","BSTAR":"0.00001233400000","DECAY_DATE":null,"SEMIMAJOR_AXIS":"6925.350","LAUNCH_DATE":"2020-08-18","MEAN_MOTION_DOT":"-0.00000098","CLASSIFICATION_TYPE":"U"},{"SEMIMAJOR_AXIS":"6925.357","LAUNCH_DATE":"2020-08-18","CLASSIFICATION_TYPE":"U","MEAN_MOTION_DOT":"-0.00000500","RA_OF_ASC_NODE":"187.6524","DECAY_DATE":null,"BSTAR":"-0.00001466100000","CENTER_NAME":"EARTH","REV_AT_EPOCH":"10452","PERIAPSIS":"546.190","REF_FRAME":"TEME","APOAPSIS":"548.255","PERIOD":"95.592","EPHEMERIS_TYPE":"0","EPOCH":"2022-07-09T16:21:24.426144","TLE_LINE2":"2 46151  53.0532 187.6524 0001491  70.3975 289.7175 15.06397182104529","INCLINATION":"53.0532","GP_ID":"207781324","ARG_OF_PERICENTER":"70.3975","MEAN_ELEMENT_THEORY":"SGP4","ECCENTRICITY":"0.00014910","SITE":"AFETR","OBJECT_ID":"2020-057AL","OBJECT_NAME":"STARLINK-1631","TIME_SYSTEM":"UTC","OBJECT_TYPE":"PAYLOAD","NORAD_CAT_ID":"46151","ELEMENT_SET_NO":"999","TLE_LINE1":"1 46151U 20057AL  22190.68153271 -.00000500  00000-0 -14661-4 0  9997","RCS_SIZE":"LARGE","MEAN_MOTION_DDOT":"0.0000000000000","COUNTRY_CODE":"US","MEAN_MOTION":"15.06397182","MEAN_ANOMALY":"289.7175","FILE":"3510681"},{"TLE_LINE1":"1 46152U 20057AM  22190.46591917  .00001691  00000-0  13234-3 0  9991","RCS_SIZE":"LARGE","MEAN_MOTION_DDOT":"0.0000000000000","MEAN_MOTION":"15.06405556","COUNTRY_CODE":"US","MEAN_ANOMALY":"289.0009","FILE":"3510582","NORAD_CAT_ID":"46152","ELEMENT_SET_NO":"999","SITE":"AFETR","OBJECT_ID":"2020-057AM","OBJECT_NAME":"STARLINK-1634","TIME_SYSTEM":"UTC","OBJECT_TYPE":"PAYLOAD","MEAN_ELEMENT_THEORY":"SGP4","ECCENTRICITY":"0.00015000","EPHEMERIS_TYPE":"0","PERIOD":"95.592","EPOCH":"2022-07-09T11:10:55.416288","INCLINATION":"53.0541","TLE_LINE2":"2 46152  53.0541 208.6380 0001500  71.1142 289.0009 15.06405556104210","GP_ID":"207729079","ARG_OF_PERICENTER":"71.1142","CENTER_NAME":"EARTH","REV_AT_EPOCH":"10421","PERIAPSIS":"546.158","APOAPSIS":"548.235","REF_FRAME":"TEME","RA_OF_ASC_NODE":"208.6380","DECAY_DATE":null,"BSTAR":"0.00013234000000","LAUNCH_DATE":"2020-08-18","SEMIMAJOR_AXIS":"6925.332","CLASSIFICATION_TYPE":"U","MEAN_MOTION_DOT":"0.00001691"},{"OBJECT_ID":"2020-057AN","SITE":"AFETR","TIME_SYSTEM":"UTC","OBJECT_TYPE":"PAYLOAD","OBJECT_NAME":"STARLINK-1636","MEAN_ELEMENT_THEORY":"SGP4","ECCENTRICITY":"0.00015190","RCS_SIZE":"LARGE","MEAN_MOTION_DDOT":"0.0000000000000","TLE_LINE1":"1 46153U 20057AN  22190.69995742 -.00000621  00000-0 -22816-4 0  9992","MEAN_ANOMALY":"300.7830","FILE":"3510681","COUNTRY_CODE":"US","MEAN_MOTION":"15.06394650","NORAD_CAT_ID":"46153","ELEMENT_SET_NO":"999","RA_OF_ASC_NODE":"187.5856","BSTAR":"-0.00002281600000","DECAY_DATE":null,"SEMIMAJOR_AXIS":"6925.365","LAUNCH_DATE":"2020-08-18","MEAN_MOTION_DOT":"-0.00000621","CLASSIFICATION_TYPE":"U","EPOCH":"2022-07-09T16:47:56.321088","TLE_LINE2":"2 46153  53.0524 187.5856 0001519  59.3309 300.7830 15.06394650104527","INCLINATION":"53.0524","EPHEMERIS_TYPE":"0","PERIOD":"95.592","ARG_OF_PERICENTER":"59.3309","GP_ID":"207781826","PERIAPSIS":"546.178","CENTER_NAME":"EARTH","REV_AT_EPOCH":"10452","REF_FRAME":"TEME","APOAPSIS":"548.282"},{"APOAPSIS":"548.459","REF_FRAME":"TEME","PERIAPSIS":"545.952","REV_AT_EPOCH":"10439","CENTER_NAME":"EARTH","ARG_OF_PERICENTER":"61.5121","GP_ID":"207782077","TLE_LINE2":"2 46154  53.0517 197.5413 0001810  61.5121 298.6050 15.06402480104396","INCLINATION":"53.0517","EPOCH":"2022-07-09T17:02:34.354176","PERIOD":"95.592","EPHEMERIS_TYPE":"0","MEAN_MOTION_DOT":"0.00002216","CLASSIFICATION_TYPE":"U","LAUNCH_DATE":"2020-08-18","SEMIMAJOR_AXIS":"6925.341","BSTAR":"0.00016758000000","DECAY_DATE":null,"RA_OF_ASC_NODE":"197.5413","ELEMENT_SET_NO":"999","NORAD_CAT_ID":"46154","FILE":"3510681","MEAN_ANOMALY":"298.6050","COUNTRY_CODE":"US","MEAN_MOTION":"15.06402480","MEAN_MOTION_DDOT":"0.0000000000000","RCS_SIZE":"LARGE","TLE_LINE1":"1 46154U 20057AP  22190.71011984  .00002216  00000-0  16758-3 0  9990","ECCENTRICITY":"0.00018100","MEAN_ELEMENT_THEORY":"SGP4","OBJECT_TYPE":"PAYLOAD","TIME_SYSTEM":"UTC","OBJECT_NAME":"STARLINK-1642","SITE":"AFETR","OBJECT_ID":"2020-057AP"},{"SITE":"AFETR","OBJECT_ID":"2020-057AQ","OBJECT_NAME":"STARLINK-1667","TIME_SYSTEM":"UTC","OBJECT_TYPE":"PAYLOAD","MEAN_ELEMENT_THEORY":"SGP4","ECCENTRICITY":"0.00017080","TLE_LINE1":"1 46155U 20057AQ  22190.66863041 -.00000150  00000-0  88460-5 0  9991","RCS_SIZE":"LARGE","MEAN_MOTION_DDOT":"0.0000000000000","MEAN_MOTION":"15.06392686","COUNTRY_CODE":"US","MEAN_ANOMALY":"296.9849","FILE":"3510681","NORAD_CAT_ID":"46155","ELEMENT_SET_NO":"999","RA_OF_ASC_NODE":"167.7199","DECAY_DATE":null,"BSTAR":"0.00000884600000","SEMIMAJOR_AXIS":"6925.371","LAUNCH_DATE":"2020-08-18","CLASSIFICATION_TYPE":"U","MEAN_MOTION_DOT":"-0.00000150","EPHEMERIS_TYPE":"0","PERIOD":"95.593","EPOCH":"2022-07-09T16:02:49.667424","TLE_LINE2":"2 46155  53.0560 167.7199 0001708  63.1314 296.9849 15.06392686106040","INCLINATION":"53.0560","GP_ID":"207780826","ARG_OF_PERICENTER":"63.1314","CENTER_NAME":"EARTH","REV_AT_EPOCH":"10604","PERIAPSIS":"546.053","APOAPSIS":"548.419","REF_FRAME":"TEME"},{"OBJECT_NAME":"STARLINK-1545","OBJECT_TYPE":"PAYLOAD","TIME_SYSTEM":"UTC","OBJECT_ID":"2020-057AR","SITE":"AFETR","ECCENTRICITY":"0.00018950","MEAN_ELEMENT_THEORY":"SGP4","MEAN_MOTION":"15.06401053","COUNTRY_CODE":"US","FILE":"3510681","MEAN_ANOMALY":"298.2017","TLE_LINE1":"1 46156U 20057AR  22190.72576940  .00003089  00000-0  22620-3 0  9995","MEAN_MOTION_DDOT":"0.0000000000000","RCS_SIZE":"LARGE","ELEMENT_SET_NO":"999","NORAD_CAT_ID":"46156","DECAY_DATE":null,"BSTAR":"0.00022620000000","RA_OF_ASC_NODE":"187.4591","CLASSIFICATION_TYPE":"U","MEAN_MOTION_DOT":"0.00003089","LAUNCH_DATE":"2020-08-18","SEMIMAJOR_AXIS":"6925.345","GP_ID":"207781076","ARG_OF_PERICENTER":"61.9164","EPHEMERIS_TYPE":"0","PERIOD":"95.592","TLE_LINE2":"2 46156  53.0538 187.4591 0001895  61.9164 298.2017 15.06401053105788","INCLINATION":"53.0538","EPOCH":"2022-07-09T17:25:06.476160","REF_FRAME":"TEME","APOAPSIS":"548.523","REV_AT_EPOCH":"10578","CENTER_NAME":"EARTH","PERIAPSIS":"545.898"},{"MEAN_ELEMENT_THEORY":"SGP4","ECCENTRICITY":"0.00021670","SITE":"AFETR","OBJECT_ID":"2020-057AS","TIME_SYSTEM":"UTC","OBJECT_TYPE":"PAYLOAD","OBJECT_NAME":"STARLINK-1587","NORAD_CAT_ID":"46157","ELEMENT_SET_NO":"999","RCS_SIZE":"LARGE","MEAN_MOTION_DDOT":"0.0000000000000","TLE_LINE1":"1 46157U 20057AS  22190.64651742 -.00001436  00000-0 -77564-4 0  9995","MEAN_ANOMALY":"304.3669","FILE":"3510681","MEAN_MOTION":"15.06384728","COUNTRY_CODE":"US","SEMIMAJOR_AXIS":"6925.395","LAUNCH_DATE":"2020-08-18","MEAN_MOTION_DOT":"-0.00001436","CLASSIFICATION_TYPE":"U","RA_OF_ASC_NODE":"167.8265","BSTAR":"-0.00007756400000","DECAY_DATE":null,"PERIAPSIS":"545.760","CENTER_NAME":"EARTH","REV_AT_EPOCH":"10480","APOAPSIS":"548.761","REF_FRAME":"TEME","EPOCH":"2022-07-09T15:30:59.105088","TLE_LINE2":"2 46157  53.0550 167.8265 0002167  55.7525 304.3669 15.06384728104801","INCLINATION":"53.0550","PERIOD":"95.593","EPHEMERIS_TYPE":"0","ARG_OF_PERICENTER":"55.7525","GP_ID":"207782326"},{"APOAPSIS":"548.449","REF_FRAME":"TEME","CENTER_NAME":"EARTH","REV_AT_EPOCH":"10606","PERIAPSIS":"545.996","GP_ID":"207782577","ARG_OF_PERICENTER":"74.6532","PERIOD":"95.592","EPHEMERIS_TYPE":"0","EPOCH":"2022-07-09T15:25:40.061856","INCLINATION":"53.0546","TLE_LINE2":"2 46158  53.0546 167.8448 0001771  74.6532 285.4653 15.06397229106060","CLASSIFICATION_TYPE":"U","MEAN_MOTION_DOT":"-0.00000225","LAUNCH_DATE":"2020-08-18","SEMIMAJOR_AXIS":"6925.357","DECAY_DATE":null,"BSTAR":"0.00000378400000","RA_OF_ASC_NODE":"167.8448","ELEMENT_SET_NO":"999","NORAD_CAT_ID":"46158","MEAN_MOTION":"15.06397229","COUNTRY_CODE":"US","MEAN_ANOMALY":"285.4653","FILE":"3510681","TLE_LINE1":"1 46158U 20057AT  22190.64282479 -.00000225  00000-0  37840-5 0  9991","RCS_SIZE":"LARGE","MEAN_MOTION_DDOT":"0.0000000000000","ECCENTRICITY":"0.00017710","MEAN_ELEMENT_THEORY":"SGP4","OBJECT_NAME":"STARLINK-1589","TIME_SYSTEM":"UTC","OBJECT_TYPE":"PAYLOAD","OBJECT_ID":"2020-057AT","SITE":"AFETR"},{"REF_FRAME":"TEME","APOAPSIS":"548.327","REV_AT_EPOCH":"10551","CENTER_NAME":"EARTH","PERIAPSIS":"546.120","GP_ID":"207781325","ARG_OF_PERICENTER":"58.8809","EPHEMERIS_TYPE":"0","PERIOD":"95.592","TLE_LINE2":"2 46159  53.0540 207.3612 0001594  58.8809 301.2336 15.06396725105516","INCLINATION":"53.0540","EPOCH":"2022-07-09T17:59:36.034368","CLASSIFICATION_TYPE":"U","MEAN_MOTION_DOT":"-0.00000226","SEMIMAJOR_AXIS":"6925.359","LAUNCH_DATE":"2020-08-18","DECAY_DATE":null,"BSTAR":"0.00000373370000","RA_OF_ASC_NODE":"207.3612","ELEMENT_SET_NO":"999","NORAD_CAT_ID":"46159","COUNTRY_CODE":"US","MEAN_MOTION":"15.06396725","FILE":"3510681","MEAN_ANOMALY":"301.2336","TLE_LINE1":"1 46159U 20057AU  22190.74972262 -.00000226  00000-0  37337-5 0  9991","MEAN_MOTION_DDOT":"0.0000000000000","RCS_SIZE":"LARGE","ECCENTRICITY":"0.00015940","MEAN_ELEMENT_THEORY":"SGP4","OBJECT_NAME":"STARLINK-1595","OBJECT_TYPE":"PAYLOAD","TIME_SYSTEM":"UTC","OBJECT_ID":"2020-057AU","SITE":"AFETR"}];
